start=new Date('2023-02-25T00:00:00.000Z').valueOf();
sats=[{"MEAN_MOTION_DDOT":"0.0000000000000","REF_FRAME":"TEME","TIME_SYSTEM":"UTC","SITE":"AFETR","COUNTRY_CODE":"US","EPOCH":"2023-02-25T00:46:10.779744","CENTER_NAME":"EARTH","OBJECT_ID":"2022-062AC","MEAN_ANOMALY":"299.6595","OBJECT_TYPE":"PAYLOAD","RCS_SIZE":"LARGE","MEAN_ELEMENT_THEORY":"SGP4","EPHEMERIS_TYPE":"0","REV_AT_EPOCH":"3904","APOAPSIS":"540.381","MEAN_MOTION":"15.08833516","MEAN_MOTION_DOT":"0.00016506","LAUNCH_DATE":"2022-06-17","INCLINATION":"53.2176","PERIAPSIS":"539.150","DECAY_DATE":null,"NORAD_CAT_ID":"52856","CLASSIFICATION_TYPE":"U","ECCENTRICITY":"0.00008900","GP_ID":"226747886","OBJECT_NAME":"STARLINK-4201","RA_OF_ASC_NODE":"321.0790","FILE":"3834774","ARG_OF_PERICENTER":"60.4486","ELEMENT_SET_NO":"999","TLE_LINE1":"1 52856U 22062AC  23056.03206921  .00016506  00000-0  10529-2 0  9994","SEMIMAJOR_AXIS":"6917.900","PERIOD":"95.438","TLE_LINE2":"2 52856  53.2176 321.0790 0000890  60.4486 299.6595 15.08833516 39040","BSTAR":"0.00105290000000"},{"CENTER_NAME":"EARTH","OBJECT_ID":"2022-062AD","MEAN_ANOMALY":"265.6365","OBJECT_TYPE":"PAYLOAD","REF_FRAME":"TEME","MEAN_MOTION_DDOT":"0.0000000000000","TIME_SYSTEM":"UTC","SITE":"AFETR","COUNTRY_CODE":"US","EPOCH":"2023-02-24T22:54:53.653824","ECCENTRICITY":"0.00013800","GP_ID":"226748319","OBJECT_NAME":"STARLINK-4199","RA_OF_ASC_NODE":"321.4241","FILE":"3834772","ELEMENT_SET_NO":"999","ARG_OF_PERICENTER":"94.4785","TLE_LINE1":"1 52857U 22062AD  23055.95478766  .00018527  00000-0  11787-2 0  9995","SEMIMAJOR_AXIS":"6917.840","PERIOD":"95.437","BSTAR":"0.00117870000000","TLE_LINE2":"2 52857  53.2172 321.4241 0001380  94.4785 265.6365 15.08853147 39035","RCS_SIZE":"LARGE","MEAN_ELEMENT_THEORY":"SGP4","EPHEMERIS_TYPE":"0","REV_AT_EPOCH":"3903","APOAPSIS":"540.660","MEAN_MOTION":"15.08853147","MEAN_MOTION_DOT":"0.00018527","LAUNCH_DATE":"2022-06-17","PERIAPSIS":"538.751","INCLINATION":"53.2172","DECAY_DATE":null,"NORAD_CAT_ID":"52857","CLASSIFICATION_TYPE":"U"},{"LAUNCH_DATE":"2022-06-17","PERIAPSIS":"538.902","INCLINATION":"53.2174","MEAN_MOTION":"15.08849639","MEAN_MOTION_DOT":"0.00004728","EPHEMERIS_TYPE":"0","REV_AT_EPOCH":"3904","APOAPSIS":"540.530","RCS_SIZE":"LARGE","MEAN_ELEMENT_THEORY":"SGP4","NORAD_CAT_ID":"52858","CLASSIFICATION_TYPE":"U","DECAY_DATE":null,"ELEMENT_SET_NO":"999","ARG_OF_PERICENTER":"97.0888","FILE":"3834772","RA_OF_ASC_NODE":"321.0920","GP_ID":"226747867","ECCENTRICITY":"0.00011770","OBJECT_NAME":"STARLINK-4198","TLE_LINE2":"2 52858  53.2174 321.0920 0001177  97.0888 263.0238 15.08849639 39048","BSTAR":"0.00031488000000","PERIOD":"95.437","TLE_LINE1":"1 52858U 22062AE  23056.02934302  .00004728  00000-0  31488-3 0  9997","SEMIMAJOR_AXIS":"6917.851","TIME_SYSTEM":"UTC","MEAN_MOTION_DDOT":"0.0000000000000","REF_FRAME":"TEME","COUNTRY_CODE":"US","EPOCH":"2023-02-25T00:42:15.236928","SITE":"AFETR","OBJECT_ID":"2022-062AE","CENTER_NAME":"EARTH","OBJECT_TYPE":"PAYLOAD","MEAN_ANOMALY":"263.0238"},{"COUNTRY_CODE":"US","EPOCH":"2023-02-24T18:03:26.633376","SITE":"AFETR","TIME_SYSTEM":"UTC","MEAN_MOTION_DDOT":"0.0000000000000","REF_FRAME":"TEME","OBJECT_TYPE":"PAYLOAD","MEAN_ANOMALY":"283.1449","OBJECT_ID":"2022-062AF","CENTER_NAME":"EARTH","NORAD_CAT_ID":"52859","CLASSIFICATION_TYPE":"U","DECAY_DATE":null,"LAUNCH_DATE":"2022-06-17","INCLINATION":"53.2173","PERIAPSIS":"538.794","MEAN_MOTION":"15.08849952","MEAN_MOTION_DOT":"0.00009539","EPHEMERIS_TYPE":"0","REV_AT_EPOCH":"3851","APOAPSIS":"540.636","RCS_SIZE":"LARGE","MEAN_ELEMENT_THEORY":"SGP4","TLE_LINE2":"2 52859  53.2173 322.3359 0001332  76.9691 283.1449 15.08849952 38515","BSTAR":"0.00061647000000","PERIOD":"95.437","TLE_LINE1":"1 52859U 22062AF  23055.75239159  .00009539  00000-0  61647-3 0  9990","SEMIMAJOR_AXIS":"6917.850","ARG_OF_PERICENTER":"76.9691","ELEMENT_SET_NO":"999","FILE":"3835059","RA_OF_ASC_NODE":"322.3359","GP_ID":"226778288","ECCENTRICITY":"0.00013320","OBJECT_NAME":"STARLINK-4196"},{"OBJECT_TYPE":"PAYLOAD","MEAN_ANOMALY":"278.2314","OBJECT_ID":"2022-062AG","CENTER_NAME":"EARTH","COUNTRY_CODE":"US","EPOCH":"2023-02-25T00:35:34.937088","SITE":"AFETR","TIME_SYSTEM":"UTC","MEAN_MOTION_DDOT":"0.0000000000000","REF_FRAME":"TEME","BSTAR":"0.00115890000000","TLE_LINE2":"2 52860  53.2157 321.1161 0001091  81.8802 278.2314 15.08844886 39044","PERIOD":"95.437","TLE_LINE1":"1 52860U 22062AG  23056.02470992  .00018206  00000-0  11589-2 0  9995","SEMIMAJOR_AXIS":"6917.865","ARG_OF_PERICENTER":"81.8802","ELEMENT_SET_NO":"999","FILE":"3834786","RA_OF_ASC_NODE":"321.1161","GP_ID":"226747898","ECCENTRICITY":"0.00010910","OBJECT_NAME":"STARLINK-4191","NORAD_CAT_ID":"52860","CLASSIFICATION_TYPE":"U","DECAY_DATE":null,"LAUNCH_DATE":"2022-06-17","PERIAPSIS":"538.976","INCLINATION":"53.2157","MEAN_MOTION":"15.08844886","MEAN_MOTION_DOT":"0.00018206","EPHEMERIS_TYPE":"0","REV_AT_EPOCH":"3904","APOAPSIS":"540.485","RCS_SIZE":"LARGE","MEAN_ELEMENT_THEORY":"SGP4"},{"DECAY_DATE":null,"CLASSIFICATION_TYPE":"U","NORAD_CAT_ID":"52861","MEAN_ELEMENT_THEORY":"SGP4","RCS_SIZE":"LARGE","APOAPSIS":"540.452","EPHEMERIS_TYPE":"0","REV_AT_EPOCH":"3851","MEAN_MOTION_DOT":"0.00011666","MEAN_MOTION":"15.08847464","PERIAPSIS":"538.993","INCLINATION":"53.2144","LAUNCH_DATE":"2022-06-17","SEMIMAJOR_AXIS":"6917.858","TLE_LINE1":"1 52861U 22062AH  23055.73398656  .00011666  00000-0  74970-3 0  9996","PERIOD":"95.437","TLE_LINE2":"2 52861  53.2144 322.4229 0001054  73.4040 286.7067 15.08847464 38515","BSTAR":"0.00074970000000","OBJECT_NAME":"STARLINK-4112","ECCENTRICITY":"0.00010540","GP_ID":"226778787","RA_OF_ASC_NODE":"322.4229","FILE":"3835059","ELEMENT_SET_NO":"999","ARG_OF_PERICENTER":"73.4040","SITE":"AFETR","EPOCH":"2023-02-24T17:36:56.438784","COUNTRY_CODE":"US","MEAN_MOTION_DDOT":"0.0000000000000","REF_FRAME":"TEME","TIME_SYSTEM":"UTC","MEAN_ANOMALY":"286.7067","OBJECT_TYPE":"PAYLOAD","CENTER_NAME":"EARTH","OBJECT_ID":"2022-062AH"},{"CLASSIFICATION_TYPE":"U","NORAD_CAT_ID":"52862","DECAY_DATE":null,"PERIAPSIS":"538.922","INCLINATION":"53.2179","LAUNCH_DATE":"2022-06-17","MEAN_MOTION_DOT":"0.00013947","MEAN_MOTION":"15.08841372","APOAPSIS":"540.560","REV_AT_EPOCH":"3904","EPHEMERIS_TYPE":"0","MEAN_ELEMENT_THEORY":"SGP4","RCS_SIZE":"LARGE","BSTAR":"0.00089260000000","TLE_LINE2":"2 52862  53.2179 321.1583 0001184  92.2154 267.8974 15.08841372 39040","PERIOD":"95.437","SEMIMAJOR_AXIS":"6917.876","TLE_LINE1":"1 52862U 22062AJ  23056.01367075  .00013947  00000-0  89260-3 0  9992","ARG_OF_PERICENTER":"92.2154","ELEMENT_SET_NO":"999","FILE":"3834786","RA_OF_ASC_NODE":"321.1583","OBJECT_NAME":"STARLINK-4010","ECCENTRICITY":"0.00011840","GP_ID":"226747899","EPOCH":"2023-02-25T00:19:41.152800","COUNTRY_CODE":"US","SITE":"AFETR","TIME_SYSTEM":"UTC","REF_FRAME":"TEME","MEAN_MOTION_DDOT":"0.0000000000000","OBJECT_TYPE":"PAYLOAD","MEAN_ANOMALY":"267.8974","OBJECT_ID":"2022-062AJ","CENTER_NAME":"EARTH"},{"OBJECT_NAME":"STARLINK-4270","GP_ID":"226747872","ECCENTRICITY":"0.00013790","RA_OF_ASC_NODE":"321.1929","FILE":"3834773","ELEMENT_SET_NO":"999","ARG_OF_PERICENTER":"92.6210","SEMIMAJOR_AXIS":"6917.892","TLE_LINE1":"1 52863U 22062AK  23056.00631228  .00001092  00000-0  86700-4 0  9991","PERIOD":"95.438","TLE_LINE2":"2 52863  53.2175 321.1929 0001379  92.6210 267.4940 15.08836324 39044","BSTAR":"0.00008670000000","RCS_SIZE":"LARGE","MEAN_ELEMENT_THEORY":"SGP4","APOAPSIS":"540.711","EPHEMERIS_TYPE":"0","REV_AT_EPOCH":"3904","MEAN_MOTION_DOT":"0.00001092","MEAN_MOTION":"15.08836324","PERIAPSIS":"538.803","INCLINATION":"53.2175","LAUNCH_DATE":"2022-06-17","DECAY_DATE":null,"CLASSIFICATION_TYPE":"U","NORAD_CAT_ID":"52863","CENTER_NAME":"EARTH","OBJECT_ID":"2022-062AK","MEAN_ANOMALY":"267.4940","OBJECT_TYPE":"PAYLOAD","REF_FRAME":"TEME","MEAN_MOTION_DDOT":"0.0000000000000","TIME_SYSTEM":"UTC","SITE":"AFETR","EPOCH":"2023-02-25T00:09:05.380992","COUNTRY_CODE":"US"},{"TLE_LINE2":"2 52864  53.2182 322.3619 0001188 100.1441 259.9686 15.08845692 38513","BSTAR":"0.00033691000000","PERIOD":"95.437","SEMIMAJOR_AXIS":"6917.863","TLE_LINE1":"1 52864U 22062AL  23055.74503859  .00005079  00000-0  33691-3 0  9999","ELEMENT_SET_NO":"999","ARG_OF_PERICENTER":"100.1441","FILE":"3835059","RA_OF_ASC_NODE":"322.3619","OBJECT_NAME":"STARLINK-4267","GP_ID":"226778538","ECCENTRICITY":"0.00011880","CLASSIFICATION_TYPE":"U","NORAD_CAT_ID":"52864","DECAY_DATE":null,"INCLINATION":"53.2182","PERIAPSIS":"538.906","LAUNCH_DATE":"2022-06-17","MEAN_MOTION_DOT":"0.00005079","MEAN_MOTION":"15.08845692","APOAPSIS":"540.550","EPHEMERIS_TYPE":"0","REV_AT_EPOCH":"3851","RCS_SIZE":"LARGE","MEAN_ELEMENT_THEORY":"SGP4","OBJECT_TYPE":"PAYLOAD","MEAN_ANOMALY":"259.9686","OBJECT_ID":"2022-062AL","CENTER_NAME":"EARTH","EPOCH":"2023-02-24T17:52:51.334176","COUNTRY_CODE":"US","SITE":"AFETR","TIME_SYSTEM":"UTC","MEAN_MOTION_DDOT":"0.0000000000000","REF_FRAME":"TEME"},{"DECAY_DATE":null,"NORAD_CAT_ID":"52865","CLASSIFICATION_TYPE":"U","RCS_SIZE":"LARGE","MEAN_ELEMENT_THEORY":"SGP4","REV_AT_EPOCH":"3851","EPHEMERIS_TYPE":"0","APOAPSIS":"540.785","MEAN_MOTION":"15.08854632","MEAN_MOTION_DOT":"0.00012587","LAUNCH_DATE":"2022-06-17","INCLINATION":"53.2146","PERIAPSIS":"538.616","TLE_LINE1":"1 52865U 22062AM  23055.73030630  .00012587  00000-0  80721-3 0  9999","SEMIMAJOR_AXIS":"6917.836","PERIOD":"95.437","TLE_LINE2":"2 52865  53.2146 322.4400 0001568  84.7026 275.4145 15.08854632 38518","BSTAR":"0.00080721000000","GP_ID":"226779287","ECCENTRICITY":"0.00015680","OBJECT_NAME":"STARLINK-4274","RA_OF_ASC_NODE":"322.4400","FILE":"3835059","ARG_OF_PERICENTER":"84.7026","ELEMENT_SET_NO":"999","SITE":"AFETR","COUNTRY_CODE":"US","EPOCH":"2023-02-24T17:31:38.464320","REF_FRAME":"TEME","MEAN_MOTION_DDOT":"0.0000000000000","TIME_SYSTEM":"UTC","MEAN_ANOMALY":"275.4145","OBJECT_TYPE":"PAYLOAD","CENTER_NAME":"EARTH","OBJECT_ID":"2022-062AM"}];
